[{"OBJECT_NAME":"STARLINK-36209","OBJECT_ID":"2025-293V","EPOCH":"2026-03-09T04:15:53.702496","MEAN_MOTION":14.98321732,"ECCENTRICITY":0.00026387,"INCLINATION":70.001,"RA_OF_ASC_NODE":95.6454,"ARG_OF_PERICENTER":266.3087,"MEAN_ANOMALY":93.777,"EPHEMERIS_TYPE":0,"CLASSIFICATION_TYPE":"U","NORAD_CAT_ID":67022,"ELEMENT_SET_NO":999,"REV_AT_EPOCH":1481,"BSTAR":-0.00072279762,"MEAN_MOTION_DOT":-8.704e-5,"MEAN_MOTION_DDOT":0},{"OBJECT_NAME":"UK-DMC","OBJECT_ID":"2003-042D","EPOCH":"2026-03-09T11:57:51.003072","MEAN_MOTION":14.8677093,"ECCENTRICITY":0.0054153,"INCLINATION":98.0812,"RA_OF_ASC_NODE":255.9431,"ARG_OF_PERICENTER":168.0294,"MEAN_ANOMALY":192.2222,"EPHEMERIS_TYPE":0,"CLASSIFICATION_TYPE":"U","NORAD_CAT_ID":27942,"ELEMENT_SET_NO":999,"REV_AT_EPOCH":20795,"BSTAR":0.00022518854,"MEAN_MOTION_DOT":1.999e-5,"MEAN_MOTION_DDOT":0}]
